sat19580
1 19580U 78100AL  20046.68654038 -.00000088  00000-0 -49149-3 0  9999
2 19580  82.6539 310.4657 0305222 295.3697  89.2362 12.56020202406122
